GLOBALSTAR M069         
1 31573U 07020C   26168.52781986 -.00000052  00000+0  37113-3 0  9992
2 31573  52.0026 251.1632 0002335 148.6760 316.2555 12.23471285878848
GLOBALSTAR M072         
1 31574U 07020D   26168.14572956 -.00000097  00000+0 -17567-3 0  9997
2 31574  51.9927 100.3553 0001415 332.5995 134.0459 11.91658387874979
GLOBALSTAR M066         
1 32265U 07048C   26167.98393721 -.00000146  00000+0 -43696-3 0  9994
2 32265  51.9604  58.4957 0005491  43.5933 329.5715 12.30387614860202
GLOBALSTAR M079         
1 37188U 10054A   26168.14544029 -.00000109  00000+0 -28705-4 0  9996
2 37188  52.0035 108.7965 0000714  24.2863  78.6582 12.62266081722547
GLOBALSTAR M074         
1 37189U 10054B   26168.15219353 -.00000114  00000+0 -56501-4 0  9998
2 37189  52.0008 108.0404 0000544  51.8526 322.0293 12.62268376723154
GLOBALSTAR M076         
1 37190U 10054C   26168.10050203 -.00000117  00000+0 -74510-4 0  9995
2 37190  52.0021 108.4009 0000724  42.4598 336.4883 12.62261791722866
GLOBALSTAR M077         
1 37191U 10054D   26167.80613808 -.00000082  00000+0 -69950-4 0  9991
2 37191  51.9920 180.2632 0002736 171.8680 359.2215 11.67547816721092
GLOBALSTAR M075         
1 37192U 10054E   26168.12687205 -.00000126  00000+0 -12383-3 0  9996
2 37192  51.9921 150.3759 0000171  24.5950  54.1451 12.62267358721939
GLOBALSTAR M073         
1 37193U 10054F   26168.03365279 -.00000084  00000+0  10957-3 0  9998
2 37193  52.0071  64.7596 0000926  47.1670 326.2489 12.62262251723914
GLOBALSTAR M083         
1 37739U 11033A   26167.88824558 -.00000087  00000+0  93562-4 0  9991
2 37739  51.9876  13.4315 0000930  66.7070 307.1051 12.62263121692912
GLOBALSTAR M088         
1 37740U 11033B   26168.51046492 -.00000081  00000+0  12967-3 0  9990
2 37740  52.0219 277.9669 0000697 127.7904 313.2022 12.62268751688533
GLOBALSTAR M091         
1 37741U 11033C   26168.52871881 -.00000078  00000+0  14625-3 0  9999
2 37741  51.9991 240.8765 0000296 153.4299 311.5236 12.62263975689322
GLOBALSTAR M085         
1 37742U 11033D   26167.81729558 -.00000099  00000+0  28746-4 0  9997
2 37742  52.0102 194.3332 0000120 286.8831 243.7708 12.62264155689748
GLOBALSTAR M081         
1 37743U 11033E   26168.38307182 -.00000095  00000+0  48311-4 0  9992
2 37743  51.9933 195.0472 0000109  97.1710   5.3468 12.62265093689969
GLOBALSTAR M089         
1 37744U 11033F   26168.24447103 -.00000116  00000+0 -68132-4 0  9994
2 37744  51.9906 149.6269 0000363  84.4350 288.8279 12.62267235690791
GLOBALSTAR M084         
1 38040U 11080A   26168.27847352 -.00000097  00000+0  36291-4 0  9997
2 38040  52.0028  17.0043 0001094  85.9407  21.8464 12.62267544668774
GLOBALSTAR M080         
1 38041U 11080B   26167.83306361 -.00000087  00000+0  93085-4 0  9992
2 38041  52.0080  20.0785 0000381  69.9121 302.9167 12.62269418668846
GLOBALSTAR M082         
1 38042U 11080C   26168.19991847 -.00000103  00000+0  34952-5 0  9990
2 38042  52.0101 334.4629 0000533  97.6302  73.0978 12.62263580669591
GLOBALSTAR M092         
1 38043U 11080D   26167.98066816 -.00000096  00000+0  44854-4 0  9998
2 38043  52.0095  65.5265 0000696  62.7662 310.1853 12.62266955668027
GLOBALSTAR M090         
1 38044U 11080E   26168.22664928 -.00000101  00000+0  16658-4 0  9993
2 38044  52.0142 328.3371 0000790  91.7049  79.5707 12.62269064669710
GLOBALSTAR M086         
1 38045U 11080F   26168.16933979 -.00000093  00000+0  57855-4 0  9996
2 38045  51.9915 328.4416 0001690  67.6654 104.0457 12.62286720669659
GLOBALSTAR M097         
1 39072U 13005A   26168.47962440 -.00000084  00000+0  11052-3 0  9993
2 39072  52.0038 242.4471 0000290 127.5163 232.5730 12.62247231616949
GLOBALSTAR M093         
1 39073U 13005B   26168.37365131 -.00000078  00000+0  14285-3 0  9991
2 39073  52.0095 236.1160 0000191  91.0737 269.0152 12.62265989616886
GLOBALSTAR M094         
1 39074U 13005C   26168.21517829 -.00000129  00000+0 -14224-3 0  9999
2 39074  51.9929 150.7134 0000407   2.4046 357.6823 12.62268548618472
GLOBALSTAR M096         
1 39075U 13005D   26168.38702495 -.00000098  00000+0  33815-4 0  9995
2 39075  52.0049 198.9931 0000041 286.0756  74.0106 12.62265665617413
GLOBALSTAR M078         
1 39076U 13005E   26168.51841252 -.00000163  00000+0 -33190-3 0  9995
2 39076  51.9885 282.6019 0000517 228.4164 131.6658 12.62257595616053
GLOBALSTAR M095         
1 39077U 13005F   26168.46597528 -.00000085  00000+0  10290-3 0  9992
2 39077  52.0091 280.3665 0000227 132.2940 227.7946 12.62263430615904
GLOBALSTAR M087         
1 52888U 22064A   26168.00410979 -.00000090  00000+0  74538-4 0  9998
2 52888  52.0009  63.0098 0000754  38.7488 321.3432 12.62269051191114
